KUIPER-00165            
1 65778U 25217S   25352.00002315 -.00284953  00000+0 -15754-1 0  9993
2 65778  51.8848  40.4073 0004721  34.1094 301.9064 15.14765360  2836
KUIPER-00166            
1 65779U 25217T   25351.83878583  .00028167  00000+0  72274-3 0  9995
2 65779  51.8712  39.4164 0003956   3.7168 356.3848 15.39108744 12838
KUIPER-00167            
1 65780U 25217U   25352.00002315  .00014526  00000+0  17263-2 0  9999
2 65780  51.8984  46.8549 0011659   6.2629 324.6220 14.84565635  1306
KUIPER-00168            
1 65781U 25217V   25351.55375859  .00028360  00000+0  75937-3 0  9999
2 65781  51.8720  40.5177 0001086  36.6492 323.4569 15.37798706 12795
KUIPER-00169            
1 65782U 25217W   25352.00002315  .00057179  00000+0  22426-2 0  9999
2 65782  51.8776  39.2789 0005077  20.5374 215.4591 15.25188202  4164
KUIPER-00170            
1 65783U 25217X   25352.00002315 -.00581949  00000+0 -37347-1 0  9996
2 65783  51.8956  41.7937 0007763  22.8652  64.0128 15.10466003  4881
KUIPER-00171            
1 65784U 25217Y   25351.56990828  .00179261  00000+0  13931-2 0  9994
2 65784  51.8569  31.6611 0010286  32.8885 327.2754 15.70625584 12911
KUIPER-00172            
1 65785U 25217Z   25352.00002315 -.00963262  00000+0 -35735-1 0  9999
2 65785  51.8763  38.6639 0005197  24.8319 118.3306 15.29621203  5869
KUIPER-00173            
1 65786U 25217AA  25352.00002315  .00052130  00000+0  21880-2 0  9998
2 65786  51.8777  39.4349 0002137 337.1538 132.9279 15.22958784  5452
KUIPER-00174            
1 65787U 25217AB  25352.00002315 -.00091362  00000+0 -25774-2 0  9997
2 65787  51.8730  38.4237 0002201 328.8111 306.2367 15.36113606  5717
KUIPER-00176            
1 65788U 25217AC  25352.00002315  .00036677  00000+0  36756-2 0  9996
2 65788  51.8970  44.8240 0003858   6.0690 266.7392 14.91012786  5563
KUIPER-00101            
1 65947U 25228A   25352.00002315 -.00002845  00000+0 -30160-3 0  9991
2 65947  51.8993   2.0397 0002709 339.6618 351.1564 14.85250189  5567
KUIPER-00113            
1 65948U 25228B   25352.00002315 -.00010958  00000+0 -77969-3 0  9994
2 65948  51.8895 358.6108 0004902  43.5328  51.3494 15.03306291  5079
KUIPER-00117            
1 65949U 25228C   25352.00002315  .00007286  00000+0  70575-3 0  9999
2 65949  51.8962   0.0545 0010844  49.6802  36.6600 14.93589163  5281
KUIPER-00121            
1 65950U 25228D   25352.00002315  .00034385  00000+0  16947-2 0  9993
2 65950  51.8817 356.9154 0007324  46.6697 261.5454 15.17608882  1301
KUIPER-00122            
1 65951U 25228E   25352.00002315 -.00000342  00000+0 -14712-4 0  9992
2 65951  51.8990   4.3040 0001883  99.6858 183.5653 14.81632778  3951
KUIPER-00123            
1 65952U 25228F   25352.00002315  .00001277  00000+0  19157-3 0  9996
2 65952  51.8996   4.3184 0001468  87.9666  20.0696 14.81069585  4495
KUIPER-00124            
1 65953U 25228G   25352.00002315 -.01572525  00000+0 -12684+0 0  9993
2 65953  51.8944 357.7866 0005785  46.2887 211.8069 15.02593443  5900
KUIPER-00125            
1 65954U 25228H   25351.71662719  .00026151  00000+0  72549-3 0  9997
2 65954  51.8790 356.4083 0006664  37.6810 322.4642 15.36726331 11188
KUIPER-00126            
1 65955U 25228J   25352.00002315 -.00002444  00000+0 -25264-3 0  9994
2 65955  51.8996   2.0588 0006231  62.1071  94.3481 14.85630044  1838
KUIPER-00127            
1 65956U 25228K   25352.00002315  .00031593  00000+0  25660-2 0  9999
2 65956  51.8958 359.8250 0006168  74.4101 258.6500 14.99329358  5575
KUIPER-00128            
1 65957U 25228L   25352.00002315 -.01837046  00000+0 -11856+0 0  9999
2 65957  51.8855 356.8554 0004152  54.6117 208.6130 15.11293140  5550
KUIPER-00129            
1 65958U 25228M   25352.00002315  .00038628  00000+0  14018-2 0  9992
2 65958  51.8828 355.2185 0005205  22.2107  30.3561 15.27939905  3654
KUIPER-00130            
1 65959U 25228N   25352.00002315  .00041919  00000+0  18177-2 0  9990
2 65959  51.8825 356.0073 0007213  48.4010 337.6049 15.21933063  3883
KUIPER-00134            
1 65960U 25228P   25351.73334013  .00029601  00000+0  84212-3 0  9992
2 65960  51.8784 356.5139 0005844   9.1661 350.9431 15.35877990 11187
KUIPER-00135            
1 65961U 25228Q   25352.00002315  .00039207  00000+0  19018-2 0  9995
2 65961  51.8901 356.2008 0007071  35.6780 214.2268 15.18105288  5774
KUIPER-00136            
1 65962U 25228R   25352.00002315 -.00966976  00000+0 -37425-1 0  9991
2 65962  51.8847 355.3556 0006154  41.8585 276.2786 15.28251029  1309
KUIPER-00137            
1 65963U 25228S   25351.73260227  .00027385  00000+0  77657-3 0  9992
2 65963  51.8812 356.5249 0006915  47.8093 312.3480 15.36014474 11189
KUIPER-00138            
1 65964U 25228T   25351.73640542  .00030284  00000+0  85394-3 0  9994
2 65964  51.8802 356.5383 0008474  46.9701 313.1994 15.36126061 11181
KUIPER-00140            
1 65965U 25228U   25351.74789184  .00024498  00000+0  71189-3 0  9999
2 65965  51.8817 356.6201 0008190  39.4518 320.7063 15.35302699 11189
KUIPER-00141            
1 65966U 25228V   25351.71610222  .00025227  00000+0  70137-3 0  9996
2 65966  51.8794 356.4069 0006246  38.6164 321.5269 15.36681978 11180
KUIPER-00146            
1 65967U 25228W   25351.72942971  .00025471  00000+0  72515-3 0  9990
2 65967  51.8813 356.5030 0007870  39.3084 320.8473 15.35925832 11183
KUIPER-00149            
1 65968U 25228X   25351.45489556  .00025402  00000+0  71836-3 0  9995
2 65968  51.8804 357.6596 0005333  35.3414 324.7925 15.36151109 11148
KUIPER-00154            
1 65969U 25228Y   25351.71961787  .00022391  00000+0  63546-3 0  9999
2 65969  51.8802 356.4309 0006576  27.3502 332.7830 15.36109660 11188
KUIPER-00157            
1 65970U 25228Z   25351.73264265  .00032059  00000+0  90156-3 0  9999
2 65970  51.8810 356.5252 0007422  43.8583 316.2992 15.36188555 11186
